[{"OBJECT_NAME":"STARLINK-5743","OBJECT_ID":"2023-020AE","EPOCH":"2026-03-09T21:05:05.615808","MEAN_MOTION":15.02796951,"ECCENTRICITY":0.00046958,"INCLINATION":43.0041,"RA_OF_ASC_NODE":351.0025,"ARG_OF_PERICENTER":34.3722,"MEAN_ANOMALY":325.7423,"EPHEMERIS_TYPE":0,"CLASSIFICATION_TYPE":"U","NORAD_CAT_ID":55597,"ELEMENT_SET_NO":999,"REV_AT_EPOCH":16909,"BSTAR":0.002257492,"MEAN_MOTION_DOT":0.00030642,"MEAN_MOTION_DDOT":0},{"OBJECT_NAME":"FALCON 9 DEB","OBJECT_ID":"2021-041BG","EPOCH":"2026-03-09T15:47:07.516032","MEAN_MOTION":15.0585876,"ECCENTRICITY":0.00124165,"INCLINATION":53.0346,"RA_OF_ASC_NODE":200.9185,"ARG_OF_PERICENTER":159.6872,"MEAN_ANOMALY":200.4613,"EPHEMERIS_TYPE":0,"CLASSIFICATION_TYPE":"U","NORAD_CAT_ID":48607,"ELEMENT_SET_NO":999,"REV_AT_EPOCH":26415,"BSTAR":0.00013916149,"MEAN_MOTION_DOT":1.762e-5,"MEAN_MOTION_DDOT":0}]
